[{"OBJECT_NAME":"LUOJIA-1 01","OBJECT_ID":"2018-048B","EPOCH":"2026-03-09T23:50:59.082432","MEAN_MOTION":14.86876409,"ECCENTRICITY":0.00105485,"INCLINATION":97.8151,"RA_OF_ASC_NODE":148.7861,"ARG_OF_PERICENTER":88.6664,"MEAN_ANOMALY":271.576,"EPHEMERIS_TYPE":0,"CLASSIFICATION_TYPE":"U","NORAD_CAT_ID":43485,"ELEMENT_SET_NO":999,"REV_AT_EPOCH":41947,"BSTAR":0.00015202216,"MEAN_MOTION_DOT":1.304e-5,"MEAN_MOTION_DDOT":0},{"OBJECT_NAME":"UNKNOWN","OBJECT_ID":"","EPOCH":"2026-03-08T09:26:42.911808","MEAN_MOTION":14.89862793,"ECCENTRICITY":0.0006539,"INCLINATION":74.0048,"RA_OF_ASC_NODE":210.6958,"ARG_OF_PERICENTER":333.5088,"MEAN_ANOMALY":26.5758,"EPHEMERIS_TYPE":0,"CLASSIFICATION_TYPE":"U","NORAD_CAT_ID":82494,"ELEMENT_SET_NO":999,"REV_AT_EPOCH":9770,"BSTAR":0.0040962,"MEAN_MOTION_DOT":0.00039583,"MEAN_MOTION_DDOT":0}]
